HULIANWANG DIGUI 18J    
1 67443U 26007J   26014.04704825 -.00000129  00000+0  14073-4 0  9993
2 67443  50.0105 292.8675 0006253 279.7559  80.2635 13.93030168    60
CZ-8A R/B               
1 67444U 26007K   26015.80918878 -.00000432  00000+0 -13942-3 0  9995
2 67444  50.0120 285.5366 0092121  90.5597 270.5868 14.13545097   308
ALSAT-3A                
1 67474U 26009A   26015.61119765  .00002648  00000+0  18176-3 0  9990
2 67474  97.1813  90.0403 0098989 221.4459 137.9231 15.02864426    76
CZ-2C R/B               
1 67475U 26009B   26015.86831264  .00004528  00000+0  19322-3 0  9996
2 67475  97.4731  90.6414 0011410 266.4484  93.5448 15.23367620   117
