CCSDS_OMM_VERS = 2.0
CREATION_DATE  = 
ORIGINATOR     = 

OBJECT_NAME    = HULIANWANG DIGUI 18J
OBJECT_ID      = 2026-007J
CENTER_NAME    = EARTH
REF_FRAME      = TEME
TIME_SYSTEM    = UTC
MEAN_ELEMENT_THEORY = SGP/SGP4

EPOCH          = 2026-01-14T01:07:44.968800
MEAN_MOTION    = 13.93030168
ECCENTRICITY   = .0006253
INCLINATION    = 50.0105
RA_OF_ASC_NODE = 292.8675
ARG_OF_PERICENTER = 279.7559
MEAN_ANOMALY   = 80.2635

EPHEMERIS_TYPE = 0
CLASSIFICATION_TYPE = U
NORAD_CAT_ID   = 67443
ELEMENT_SET_NO = 999
REV_AT_EPOCH   = 6
BSTAR          = .14073E-4
MEAN_MOTION_DOT = -.129E-5
MEAN_MOTION_DDOT = 0

CCSDS_OMM_VERS = 2.0
CREATION_DATE  = 
ORIGINATOR     = 

OBJECT_NAME    = CZ-8A R/B
OBJECT_ID      = 2026-007K
CENTER_NAME    = EARTH
REF_FRAME      = TEME
TIME_SYSTEM    = UTC
MEAN_ELEMENT_THEORY = SGP/SGP4

EPOCH          = 2026-01-15T19:25:13.910592
MEAN_MOTION    = 14.13545097
ECCENTRICITY   = .0092121
INCLINATION    = 50.0120
RA_OF_ASC_NODE = 285.5366
ARG_OF_PERICENTER = 90.5597
MEAN_ANOMALY   = 270.5868

EPHEMERIS_TYPE = 0
CLASSIFICATION_TYPE = U
NORAD_CAT_ID   = 67444
ELEMENT_SET_NO = 999
REV_AT_EPOCH   = 30
BSTAR          = -.13942E-3
MEAN_MOTION_DOT = -.432E-5
MEAN_MOTION_DDOT = 0

CCSDS_OMM_VERS = 2.0
CREATION_DATE  = 
ORIGINATOR     = 

OBJECT_NAME    = ALSAT-3A
OBJECT_ID      = 2026-009A
CENTER_NAME    = EARTH
REF_FRAME      = TEME
TIME_SYSTEM    = UTC
MEAN_ELEMENT_THEORY = SGP/SGP4

EPOCH          = 2026-01-15T14:40:07.476960
MEAN_MOTION    = 15.02864426
ECCENTRICITY   = .00989892
INCLINATION    = 97.1813
RA_OF_ASC_NODE = 90.0403
ARG_OF_PERICENTER = 221.4459
MEAN_ANOMALY   = 137.9231

EPHEMERIS_TYPE = 0
CLASSIFICATION_TYPE = U
NORAD_CAT_ID   = 67474
ELEMENT_SET_NO = 999
REV_AT_EPOCH   = 7
BSTAR          = .18175557E-3
MEAN_MOTION_DOT = .2648E-4
MEAN_MOTION_DDOT = 0

CCSDS_OMM_VERS = 2.0
CREATION_DATE  = 
ORIGINATOR     = 

OBJECT_NAME    = CZ-2C R/B
OBJECT_ID      = 2026-009B
CENTER_NAME    = EARTH
REF_FRAME      = TEME
TIME_SYSTEM    = UTC
MEAN_ELEMENT_THEORY = SGP/SGP4

EPOCH          = 2026-01-15T20:50:22.212096
MEAN_MOTION    = 15.23367620
ECCENTRICITY   = .001141
INCLINATION    = 97.4731
RA_OF_ASC_NODE = 90.6414
ARG_OF_PERICENTER = 266.4484
MEAN_ANOMALY   = 93.5448

EPHEMERIS_TYPE = 0
CLASSIFICATION_TYPE = U
NORAD_CAT_ID   = 67475
ELEMENT_SET_NO = 999
REV_AT_EPOCH   = 11
BSTAR          = .19322E-3
MEAN_MOTION_DOT = .4528E-4
MEAN_MOTION_DDOT = 0

